{
  "type": "FeatureCollection",
  "features": [
    {
      "type": "Feature",
      "properties": {
        "norad_id": 34003,
        "name": "COSMOS 2251 DEB",
        "group": "cosmos-2251-debris",
        "lat": 55.2622284152577,
        "lon": 55.74802011822909,
        "alt_km": 1015.7946121044406,
        "timestamp": "2025-12-27T15:27:11.587736+00:00",
        "meta_object_name": "COSMOS 2251 DEB",
        "meta_object_id": "1993-036GN",
        "meta_epoch": "2025-12-27T02:44:41.840160",
        "meta_mean_motion": 13.84230324,
        "meta_eccentricity": 0.02754335,
        "meta_inclination": 74.0772,
        "meta_ra_of_asc_node": 260.9496,
        "meta_arg_of_pericenter": 9.7272,
        "meta_mean_anomaly": 350.9031,
        "meta_ephemeris_type": 0,
        "meta_classification_type": "U",
        "meta_norad_cat_id": 34003,
        "meta_element_set_no": 999,
        "meta_rev_at_epoch": 84624,
        "meta_bstar": 0.0020358254,
        "meta_mean_motion_dot": 3.026e-05,
        "meta_mean_motion_ddot": 0,
        "tle_line1": "1 34003U 93036GN  25361.11437315  .00003026  00000+0  20358-2 0  9993",
        "tle_line2": "2 34003  74.0772 260.9496 0275433   9.7272 350.9031 13.84230324846241"
      },
      "geometry": {
        "type": "Point",
        "coordinates": [
          55.74802011822909,
          55.2622284152577
        ]
      }
    },
    {
      "type": "Feature",
      "properties": {
        "norad_id": 34004,
        "name": "COSMOS 2251 DEB",
        "group": "cosmos-2251-debris",
        "lat": -4.404301435736662,
        "lon": -76.10191565901658,
        "alt_km": 719.7290047275483,
        "timestamp": "2025-12-27T15:27:11.587746+00:00",
        "meta_object_name": "COSMOS 2251 DEB",
        "meta_object_id": "1993-036GP",
        "meta_epoch": "2025-12-26T21:14:56.992704",
        "meta_mean_motion": 14.49137991,
        "meta_eccentricity": 0.003342,
        "meta_inclination": 74.0355,
        "meta_ra_of_asc_node": 286.5833,
        "meta_arg_of_pericenter": 297.0253,
        "meta_mean_anomaly": 62.7497,
        "meta_ephemeris_type": 0,
        "meta_classification_type": "U",
        "meta_norad_cat_id": 34004,
        "meta_element_set_no": 999,
        "meta_rev_at_epoch": 88235,
        "meta_bstar": 0.0014119,
        "meta_mean_motion_dot": 5.384e-05,
        "meta_mean_motion_ddot": 0,
        "tle_line1": "1 34004U 93036GP  25360.88538186  .00005384  00000+0  14119-2 0  9992",
        "tle_line2": "2 34004  74.0355 286.5833 0033420 297.0253  62.7497 14.49137991882351"
      },
      "geometry": {
        "type": "Point",
        "coordinates": [
          -76.10191565901658,
          -4.404301435736662
        ]
      }
    },
    {
      "type": "Feature",
      "properties": {
        "norad_id": 34005,
        "name": "COSMOS 2251 DEB",
        "group": "cosmos-2251-debris",
        "lat": 20.252843402976126,
        "lon": 0.05070342619578802,
        "alt_km": 769.2348392814538,
        "timestamp": "2025-12-27T15:27:11.587756+00:00",
        "meta_object_name": "COSMOS 2251 DEB",
        "meta_object_id": "1993-036GQ",
        "meta_epoch": "2025-12-27T07:11:12.505920",
        "meta_mean_motion": 14.40314646,
        "meta_eccentricity": 0.00212667,
        "meta_inclination": 74.0432,
        "meta_ra_of_asc_node": 186.7469,
        "meta_arg_of_pericenter": 302.5727,
        "meta_mean_anomaly": 231.1529,
        "meta_ephemeris_type": 0,
        "meta_classification_type": "U",
        "meta_norad_cat_id": 34005,
        "meta_element_set_no": 999,
        "meta_rev_at_epoch": 88588,
        "meta_bstar": 0.00012467977,
        "meta_mean_motion_dot": 3.7e-06,
        "meta_mean_motion_ddot": 0,
        "tle_line1": "1 34005U 93036GQ  25361.29945030  .00000370  00000+0  12468-3 0  9995",
        "tle_line2": "2 34005  74.0432 186.7469 0021266 302.5727 231.1529 14.40314646885881"
      },
      "geometry": {
        "type": "Point",
        "coordinates": [
          0.05070342619578802,
          20.252843402976126
        ]
      }
    },
    {
      "type": "Feature",
      "properties": {
        "norad_id": 34006,
        "name": "COSMOS 2251 DEB",
        "group": "cosmos-2251-debris",
        "lat": 47.86479539180964,
        "lon": -85.17360677958439,
        "alt_km": 574.8631956399631,
        "timestamp": "2025-12-27T15:27:11.587766+00:00",
        "meta_object_name": "COSMOS 2251 DEB",
        "meta_object_id": "1993-036GR",
        "meta_epoch": "2025-12-25T18:35:55.863168",
        "meta_mean_motion": 14.95648156,
        "meta_eccentricity": 0.00117121,
        "meta_inclination": 74.0532,
        "meta_ra_of_asc_node": 117.0187,
        "meta_arg_of_pericenter": 46.7358,
        "meta_mean_anomaly": 103.407,
        "meta_ephemeris_type": 0,
        "meta_classification_type": "U",
        "meta_norad_cat_id": 34006,
        "meta_element_set_no": 999,
        "meta_rev_at_epoch": 88863,
        "meta_bstar": 0.0036326632,
        "meta_mean_motion_dot": 0.00040646,
        "meta_mean_motion_ddot": 0,
        "tle_line1": "1 34006U 93036GR  25359.77495212  .00040646  00000+0  36327-2 0  9997",
        "tle_line2": "2 34006  74.0532 117.0187 0011712  46.7358 103.4070 14.95648156888633"
      },
      "geometry": {
        "type": "Point",
        "coordinates": [
          -85.17360677958439,
          47.86479539180964
        ]
      }
    },
    {
      "type": "Feature",
      "properties": {
        "norad_id": 34007,
        "name": "COSMOS 2251 DEB",
        "group": "cosmos-2251-debris",
        "lat": -53.623730964210225,
        "lon": 161.09799320386878,
        "alt_km": 710.6232297499218,
        "timestamp": "2025-12-27T15:27:11.587777+00:00",
        "meta_object_name": "COSMOS 2251 DEB",
        "meta_object_id": "1993-036GS",
        "meta_epoch": "2025-12-26T23:37:40.562400",
        "meta_mean_motion": 14.64891569,
        "meta_eccentricity": 0.0044257,
        "meta_inclination": 74.0198,
        "meta_ra_of_asc_node": 319.4733,
        "meta_arg_of_pericenter": 89.8113,
        "meta_mean_anomaly": 270.8127,
        "meta_ephemeris_type": 0,
        "meta_classification_type": "U",
        "meta_norad_cat_id": 34007,
        "meta_element_set_no": 999,
        "meta_rev_at_epoch": 89288,
        "meta_bstar": 0.00094056,
        "meta_mean_motion_dot": 5.073e-05,
        "meta_mean_motion_ddot": 0,
        "tle_line1": "1 34007U 93036GS  25360.98449725  .00005073  00000+0  94056-3 0  9990",
        "tle_line2": "2 34007  74.0198 319.4733 0044257  89.8113 270.8127 14.64891569892882"
      },
      "geometry": {
        "type": "Point",
        "coordinates": [
          161.09799320386878,
          -53.623730964210225
        ]
      }
    },
    {
      "type": "Feature",
      "properties": {
        "norad_id": 34008,
        "name": "COSMOS 2251 DEB",
        "group": "cosmos-2251-debris",
        "lat": 40.28228618059613,
        "lon": -42.678760270947954,
        "alt_km": 782.5829856223754,
        "timestamp": "2025-12-27T15:27:11.587787+00:00",
        "meta_object_name": "COSMOS 2251 DEB",
        "meta_object_id": "1993-036GT",
        "meta_epoch": "2025-12-27T05:45:36.118368",
        "meta_mean_motion": 14.33156406,
        "meta_eccentricity": 0.00246865,
        "meta_inclination": 74.035,
        "meta_ra_of_asc_node": 304.0177,
        "meta_arg_of_pericenter": 296.9574,
        "meta_mean_anomaly": 182.1703,
        "meta_ephemeris_type": 0,
        "meta_classification_type": "U",
        "meta_norad_cat_id": 34008,
        "meta_element_set_no": 999,
        "meta_rev_at_epoch": 88172,
        "meta_bstar": 0.00014351305,
        "meta_mean_motion_dot": 3.69e-06,
        "meta_mean_motion_ddot": 0,
        "tle_line1": "1 34008U 93036GT  25361.24000137  .00000369  00000+0  14351-3 0  9994",
        "tle_line2": "2 34008  74.0350 304.0177 0024686 296.9574 182.1703 14.33156406881727"
      },
      "geometry": {
        "type": "Point",
        "coordinates": [
          -42.678760270947954,
          40.28228618059613
        ]
      }
    },
    {
      "type": "Feature",
      "properties": {
        "norad_id": 34009,
        "name": "COSMOS 2251 DEB",
        "group": "cosmos-2251-debris",
        "lat": 72.35726390807834,
        "lon": 13.84949168971223,
        "alt_km": 766.0881487815568,
        "timestamp": "2025-12-27T15:27:11.587798+00:00",
        "meta_object_name": "COSMOS 2251 DEB",
        "meta_object_id": "1993-036GU",
        "meta_epoch": "2025-12-27T03:26:44.855808",
        "meta_mean_motion": 14.3323432,
        "meta_eccentricity": 0.00270839,
        "meta_inclination": 74.0378,
        "meta_ra_of_asc_node": 310.6135,
        "meta_arg_of_pericenter": 16.1931,
        "meta_mean_anomaly": 5.5578,
        "meta_ephemeris_type": 0,
        "meta_classification_type": "U",
        "meta_norad_cat_id": 34009,
        "meta_element_set_no": 999,
        "meta_rev_at_epoch": 88152,
        "meta_bstar": 0.00018308343,
        "meta_mean_motion_dot": 4.79e-06,
        "meta_mean_motion_ddot": 0,
        "tle_line1": "1 34009U 93036GU  25361.14357472  .00000479  00000+0  18308-3 0  9999",
        "tle_line2": "2 34009  74.0378 310.6135 0027083  16.1931   5.5578 14.33234320881526"
      },
      "geometry": {
        "type": "Point",
        "coordinates": [
          13.84949168971223,
          72.35726390807834
        ]
      }
    }
  ]
}